{
  "last_updated": "2026-01-23T06:00:02.647272",
  "satellites": {
    "98592": {
      "name": "DUTHSat-2",
      "norad_id": "98592",
      "tle": "1 64530U 25135C   26022.79002538  .00016567  00000-0  71230-3 0  9991\n2 64530  97.4489 139.3375 0004720 349.8732  10.2408 15.22716454 32772",
      "epoch": "2026-01-22T18:57:38.192832",
      "fetched_at": "2026-01-23T06:00:02.761119",
      "source": "satnogs"
    },
    "98530": {
      "name": "LAMARR",
      "norad_id": "98530",
      "tle": "1 66673U 25276H   26022.88924580  .00014590  00000-0  71321-3 0  9992\n2 66673  97.4314  98.8847 0007336 155.1893 204.9695 15.18307025  8367",
      "epoch": "2026-01-22T21:20:30.837120",
      "fetched_at": "2026-01-23T06:00:02.804606",
      "source": "satnogs"
    },
    "98529": {
      "name": "DIRAC",
      "norad_id": "98529",
      "tle": "1 66681U 25276R   26021.16460035  .00041327  00000-0  19860-2 0  9998\n2 66681  97.4288  97.1965 0006075 166.2496 193.8905 15.18682447  8106",
      "epoch": "2026-01-21T03:57:01.470240",
      "fetched_at": "2026-01-23T06:00:02.857909",
      "source": "satnogs"
    },
    "98518": {
      "name": "MICE-1",
      "norad_id": "98518",
      "tle": "1 66684U 25276U   26022.95388893  .00015574  00000-0  77004-3 0  9990\n2 66684  97.4422  99.0303 0006693 131.3514 228.8297 15.17900748  8374",
      "epoch": "2026-01-22T22:53:36.003552",
      "fetched_at": "2026-01-23T06:00:02.907301",
      "source": "satnogs"
    }
  },
  "fetch_log": [
    {
      "norad_id": "98592",
      "name": "DUTHSat-2",
      "status": "success",
      "source": "satnogs",
      "timestamp": "2026-01-23T06:00:02.761122"
    },
    {
      "norad_id": "98530",
      "name": "LAMARR",
      "status": "success",
      "source": "satnogs",
      "timestamp": "2026-01-23T06:00:02.804609"
    },
    {
      "norad_id": "98529",
      "name": "DIRAC",
      "status": "success",
      "source": "satnogs",
      "timestamp": "2026-01-23T06:00:02.857913"
    },
    {
      "norad_id": "98518",
      "name": "MICE-1",
      "status": "success",
      "source": "satnogs",
      "timestamp": "2026-01-23T06:00:02.907304"
    }
  ]
}